[
   {
      "satellite_name": "PROBA-1",
      "tle_1": "1 26958U 01049B   24239.57189912  .00004837  00000+0  36170-3 0  9997",
      "tle_2": "2 26958  97.9145 217.5168 0060072 185.7332 174.3212 15.01818348244392"
   },
   {
      "satellite_name": "CUTE-1 (CO-55)",
      "tle_1": "1 27844U 03031E   24238.96622326  .00000826  00000+0  38325-3 0  9996",
      "tle_2": "2 27844  98.6792 245.0323 0008628 306.9157  53.1230 14.23405217 97719"
   },
   {
      "satellite_name": "CUBESAT XI-IV (CO-57)",
      "tle_1": "1 27848U 03031J   24238.99854462  .00000702  00000+0  33205-3 0  9996",
      "tle_2": "2 27848  98.6822 245.2689 0008804 324.8941  35.1656 14.22826250 97467"
   },
   {
      "satellite_name": "GENESIS 1",
      "tle_1": "1 29252U 06029A   24239.48266214  .00029466  00000+0  66410-3 0  9996",
      "tle_2": "2 29252  64.5135 288.1349 0032331 315.5113  44.3426 15.42599644  1487"
   },
   {
      "satellite_name": "GENESIS 2",
      "tle_1": "1 31789U 07028A   24239.54151205  .00029978  00000+0  73186-3 0  9990",
      "tle_2": "2 31789  64.4897 334.0155 0014887 238.1359 121.8327 15.40631349948245"
   },
   {
      "satellite_name": "APRIZESAT 4",
      "tle_1": "1 35684U 09041D   24239.39699789  .00001868  00000+0  24066-3 0  9993",
      "tle_2": "2 35684  98.2311 288.1760 0043835 297.4833  62.1926 14.81700970813570"
   },
   {
      "satellite_name": "APRIZESAT 3",
      "tle_1": "1 35686U 09041F   24239.26985150  .00004662  00000+0  44775-3 0  9995",
      "tle_2": "2 35686  98.1222 355.4336 0068214  83.0365 277.8606 14.91819828817811"
   },
   {
      "satellite_name": "PROBA-2",
      "tle_1": "1 36037U 09059B   24239.40335546  .00000680  00000+0  17165-3 0  9998",
      "tle_2": "2 36037  98.2339  61.6612 0013810 153.3281 206.8628 14.54046625785619"
   },
   {
      "satellite_name": "APRIZESAT 5",
      "tle_1": "1 37792U 11044E   24239.46858727  .00002903  00000+0  39837-3 0  9991",
      "tle_2": "2 37792  98.2344 144.9190 0054157 325.6373  34.1338 14.78222236701219"
   },
   {
      "satellite_name": "APRIZESAT 6",
      "tle_1": "1 37793U 11044F   24239.45488794  .00002126  00000+0  32095-3 0  9990",
      "tle_2": "2 37793  98.2906 124.5424 0045758  34.6917 139.5514 14.74724281699828"
   },
   {
      "satellite_name": "PROBA-V",
      "tle_1": "1 39159U 13021A   24239.30478298  .00000230  00000+0  11935-3 0  9991",
      "tle_2": "2 39159  98.3095 241.9192 0002930 264.7615  95.3230 14.23308129587236"
   },
   {
      "satellite_name": "APRIZESAT 7",
      "tle_1": "1 39416U 13066A   24239.40334685  .00002908  00000+0  31998-3 0  9993",
      "tle_2": "2 39416  97.6766 196.3336 0036879 234.7588 125.0175 14.87860422582971"
   },
   {
      "satellite_name": "APRIZESAT 8",
      "tle_1": "1 39425U 13066K   24239.58311998  .00002953  00000+0  34948-3 0  9992",
      "tle_2": "2 39425  97.7337 189.9458 0047014 295.6838  63.9525 14.84566106581681"
   },
   {
      "satellite_name": "BUGSAT-1 (TITA)",
      "tle_1": "1 40014U 14033E   24239.56830843  .00007500  00000+0  52319-3 0  9991",
      "tle_2": "2 40014  98.1196 284.7619 0033415 256.4994 103.2506 15.05250089556229"
   },
   {
      "satellite_name": "SAUDISAT 4",
      "tle_1": "1 40016U 14033G   24239.43381371  .00001901  00000+0  26890-3 0  9990",
      "tle_2": "2 40016  97.6742  41.7998 0047763  61.1797 299.4197 14.77445781548572"
   },
   {
      "satellite_name": "APRIZESAT 9",
      "tle_1": "1 40018U 14033J   24239.33757064  .00002415  00000+0  37661-3 0  9996",
      "tle_2": "2 40018  97.8130  22.1881 0069016 160.7156 199.6688 14.72207038546391"
   },
   {
      "satellite_name": "APRIZESAT 10",
      "tle_1": "1 40019U 14033K   24239.64029259  .00002103  00000+0  34929-3 0  9997",
      "tle_2": "2 40019  97.8775  14.4774 0080480 219.2411 140.2944 14.69075837545341"
   },
   {
      "satellite_name": "TECHDEMOSAT-1 (TDS-1)",
      "tle_1": "1 40076U 14037H   24239.40791560  .00013410  00000+0  11984-2 0  9997",
      "tle_2": "2 40076  98.3243 166.1701 0004569  15.3163 344.8194 14.96031272548930"
   },
   {
      "satellite_name": "TIANTUO 2",
      "tle_1": "1 40144U 14053B   24239.54361019  .00053991  00000+0  49783-3 0  9995",
      "tle_2": "2 40144  97.1171 321.2755 0006271 141.2368 218.9344 15.67438081559000"
   },
   {
      "satellite_name": "TECHNOSAT",
      "tle_1": "1 42829U 17042E   24239.43495844  .00006657  00000+0  57577-3 0  9997",
      "tle_2": "2 42829  97.3873  56.6128 0012203 191.0069 169.0889 14.97431639387686"
   },
   {
      "satellite_name": "FLYING LAPTOP",
      "tle_1": "1 42831U 17042G   24239.57544554  .00004870  00000+0  44180-3 0  9999",
      "tle_2": "2 42831  97.3900  56.4756 0012294 192.9728 167.1180 14.95683552387658"
   },
   {
      "satellite_name": "HAWK-A",
      "tle_1": "1 43765U 18099H   24239.11863665  .00007502  00000+0  54554-3 0  9997",
      "tle_2": "2 43765  97.4906 294.2432 0010175  49.3556 310.8554 15.04062201313154"
   },
   {
      "satellite_name": "HAWK-B",
      "tle_1": "1 43794U 18099AN  24239.11927522  .00007417  00000+0  53934-3 0  9998",
      "tle_2": "2 43794  97.4906 294.2444 0010095  49.8420 310.3689 15.04065925313144"
   },
   {
      "satellite_name": "HAWK-C",
      "tle_1": "1 43799U 18099AT  24239.11887795  .00007468  00000+0  54312-3 0  9997",
      "tle_2": "2 43799  97.4907 294.1389 0010031  49.8346 310.3757 15.04058370313898"
   },
   {
      "satellite_name": "SALSAT",
      "tle_1": "1 46495U 20068K   24239.40818414  .00010560  00000+0  57405-3 0  9999",
      "tle_2": "2 46495  97.8219 200.5508 0015806  77.1179 283.1817 15.14575881214932"
   },
   {
      "satellite_name": "HAWK-2C",
      "tle_1": "1 47502U 21006CT  24239.37496094  .00009325  00000+0  42178-3 0  9992",
      "tle_2": "2 47502  97.3262 287.3688 0009980  41.8707 318.3290 15.21087806198680"
   },
   {
      "satellite_name": "HAWK-2A",
      "tle_1": "1 47505U 21006CW  24239.57247852  .00009585  00000+0  43346-3 0  9999",
      "tle_2": "2 47505  97.3319 287.8358 0009198  45.0088 315.1892 15.21091457198718"
   },
   {
      "satellite_name": "HAWK-2B",
      "tle_1": "1 47508U 21006CZ  24239.37530475  .00009665  00000+0  43701-3 0  9990",
      "tle_2": "2 47508  97.3173 287.1199 0009962  44.2621 315.9410 15.21087865198686"
   },
   {
      "satellite_name": "HAWK-3B",
      "tle_1": "1 48931U 21059BE  24239.36473424  .00018942  00000+0  63364-3 0  9993",
      "tle_2": "2 48931  97.6380  25.5355 0011306 190.4687 169.6320 15.30970252175768"
   },
   {
      "satellite_name": "HAWK-3C",
      "tle_1": "1 48948U 21059BX  24239.42983183  .00018254  00000+0  61060-3 0  9993",
      "tle_2": "2 48948  97.6641  29.4225 0011991 195.2780 164.8100 15.30971331175775"
   },
   {
      "satellite_name": "HAWK-3A",
      "tle_1": "1 48957U 21059CG  24239.36434667  .00018361  00000+0  61424-3 0  9997",
      "tle_2": "2 48957  97.6511  27.4525 0012172 188.9482 171.1543 15.30964463175761"
   },
   {
      "satellite_name": "HAWK-4B",
      "tle_1": "1 52165U 22033J   24239.47339661  .00028614  00000+0  65023-3 0  9997",
      "tle_2": "2 52165  97.3214 322.4113 0006922  58.5086 301.6837 15.42951449134138"
   },
   {
      "satellite_name": "HAWK-4A",
      "tle_1": "1 52167U 22033L   24239.47316130  .00028458  00000+0  64663-3 0  9990",
      "tle_2": "2 52167  97.3154 321.8463 0006419  58.5972 301.5902 15.42958468134139"
   },
   {
      "satellite_name": "HAWK-4C",
      "tle_1": "1 52170U 22033P   24239.47298950  .00028717  00000+0  65228-3 0  9999",
      "tle_2": "2 52170  97.3211 322.3867 0007785  45.2742 314.9138 15.42957530134134"
   },
   {
      "satellite_name": "HAWK-5C",
      "tle_1": "1 52754U 22057Y   24239.62601188  .00014823  00000+0  58784-3 0  9993",
      "tle_2": "2 52754  97.5848   2.6821 0007003 262.0901  97.9541 15.25461309124946"
   },
   {
      "satellite_name": "HAWK-5B",
      "tle_1": "1 52756U 22057AA  24239.29787136  .00014916  00000+0  59143-3 0  9999",
      "tle_2": "2 52756  97.5846   0.7951 0007667 258.1102 101.9275 15.25459852124898"
   },
   {
      "satellite_name": "HAWK-5A",
      "tle_1": "1 52757U 22057AB  24239.29764495  .00014675  00000+0  58198-3 0  9994",
      "tle_2": "2 52757  97.5847   1.5663 0007940 261.6714  98.3623 15.25455718124894"
   },
   {
      "satellite_name": "HAWK-6B",
      "tle_1": "1 55324U 23011A   24239.22642073  .00007864  00000+0  45321-3 0  9994",
      "tle_2": "2 55324  40.5157 213.9736 0005210 274.6434  85.3777 15.12449936 87503"
   },
   {
      "satellite_name": "HAWK-6C",
      "tle_1": "1 55326U 23011C   24239.22597601  .00007202  00000+0  41585-3 0  9996",
      "tle_2": "2 55326  40.4846 212.3550 0005990 275.1495  84.8627 15.12450681 87512"
   },
   {
      "satellite_name": "HAWK-6A",
      "tle_1": "1 55327U 23011D   24239.62210537  .00007934  00000+0  45690-3 0  9994",
      "tle_2": "2 55327  40.5003 210.9199 0006116 270.1821  89.8283 15.12461238 87570"
   },
   {
      "satellite_name": "HAWK-7A",
      "tle_1": "1 56191U 23054P   24239.40947990  .00009267  00000+0  43152-3 0  9999",
      "tle_2": "2 56191  97.3597 129.4131 0006217 245.8724 114.1862 15.20115836 76382"
   },
   {
      "satellite_name": "HAWK-7B",
      "tle_1": "1 56193U 23054R   24239.27774523  .00009193  00000+0  42811-3 0  9995",
      "tle_2": "2 56193  97.3506 127.9188 0006879 262.8289  97.2164 15.20112319 76365"
   },
   {
      "satellite_name": "HAWK-7C",
      "tle_1": "1 56200U 23054Y   24239.40928656  .00009236  00000+0  43010-3 0  9997",
      "tle_2": "2 56200  97.3506 128.8416 0006040 259.2399 100.8157 15.20115261 76384"
   }
]